%
(KURE UCLU TAKIMLA YUZEY TARAMA - 60x60x20)
(T5 = 6mm KURE UCLU / BALL NOSE)
(PARABOLIK VADI: KURE UC YUVARLAK TABAN BIRAKIR)
G21 G90 G17
G54
M6 T5
M3 S6000
G0 Z20
(PASO Y-24)
G0 Z2
G0 X-26 Y-24
G1 Z0 F300
X26 F900
(PASO Y-22.5)
G0 Z2
G0 X-26 Y-22.5
G1 Z-0.969 F300
X26
(PASO Y-21)
G0 Z2
G0 X-26 Y-21
G1 Z-1.875 F300
X26
(PASO Y-19.5)
G0 Z2
G0 X-26 Y-19.5
G1 Z-2.719 F300
X26
(PASO Y-18)
G0 Z2
G0 X-26 Y-18
G1 Z-3.5 F300
X26
(PASO Y-16.5)
G0 Z2
G0 X-26 Y-16.5
G1 Z-4.219 F300
X26
(PASO Y-15)
G0 Z2
G0 X-26 Y-15
G1 Z-4.875 F300
X26
(PASO Y-13.5)
G0 Z2
G0 X-26 Y-13.5
G1 Z-5.469 F300
X26
(PASO Y-12)
G0 Z2
G0 X-26 Y-12
G1 Z-6 F300
X26
(PASO Y-10.5)
G0 Z2
G0 X-26 Y-10.5
G1 Z-6.469 F300
X26
(PASO Y-9)
G0 Z2
G0 X-26 Y-9
G1 Z-6.875 F300
X26
(PASO Y-7.5)
G0 Z2
G0 X-26 Y-7.5
G1 Z-7.219 F300
X26
(PASO Y-6)
G0 Z2
G0 X-26 Y-6
G1 Z-7.5 F300
X26
(PASO Y-4.5)
G0 Z2
G0 X-26 Y-4.5
G1 Z-7.719 F300
X26
(PASO Y-3)
G0 Z2
G0 X-26 Y-3
G1 Z-7.875 F300
X26
(PASO Y-1.5)
G0 Z2
G0 X-26 Y-1.5
G1 Z-7.969 F300
X26
(PASO Y0)
G0 Z2
G0 X-26 Y0
G1 Z-8 F300
X26
(PASO Y1.5)
G0 Z2
G0 X-26 Y1.5
G1 Z-7.969 F300
X26
(PASO Y3)
G0 Z2
G0 X-26 Y3
G1 Z-7.875 F300
X26
(PASO Y4.5)
G0 Z2
G0 X-26 Y4.5
G1 Z-7.719 F300
X26
(PASO Y6)
G0 Z2
G0 X-26 Y6
G1 Z-7.5 F300
X26
(PASO Y7.5)
G0 Z2
G0 X-26 Y7.5
G1 Z-7.219 F300
X26
(PASO Y9)
G0 Z2
G0 X-26 Y9
G1 Z-6.875 F300
X26
(PASO Y10.5)
G0 Z2
G0 X-26 Y10.5
G1 Z-6.469 F300
X26
(PASO Y12)
G0 Z2
G0 X-26 Y12
G1 Z-6 F300
X26
(PASO Y13.5)
G0 Z2
G0 X-26 Y13.5
G1 Z-5.469 F300
X26
(PASO Y15)
G0 Z2
G0 X-26 Y15
G1 Z-4.875 F300
X26
(PASO Y16.5)
G0 Z2
G0 X-26 Y16.5
G1 Z-4.219 F300
X26
(PASO Y18)
G0 Z2
G0 X-26 Y18
G1 Z-3.5 F300
X26
(PASO Y19.5)
G0 Z2
G0 X-26 Y19.5
G1 Z-2.719 F300
X26
(PASO Y21)
G0 Z2
G0 X-26 Y21
G1 Z-1.875 F300
X26
(PASO Y22.5)
G0 Z2
G0 X-26 Y22.5
G1 Z-0.969 F300
X26
(PASO Y24)
G0 Z2
G0 X-26 Y24
G1 Z0 F300
X26
G0 Z20
M5
M30
%
