%
(V UCLU GRAVUR - 80x50x10)
(T6 = 6mm V UC, 60 DERECE)
(SIG DERINLIK: OLUK V KESITLIDIR)
G21 G90 G17
G54
M6 T6
M3 S12000
G0 Z10
(CERCEVE)
G0 Z2
G0 X-32 Y-18
G1 Z-1.2 F200
X32 Y-18 F600
X32 Y18 F600
X-32 Y18 F600
X-32 Y-18 F600
G0 Z2
(HARF: C)
G0 Z2
G0 X-17.404 Y-5.142
G1 Z-1.2 F200
X-20.058 Y-7.569 F600
X-23.27 Y-7.819 F600
X-26.117 Y-5.819 F600
X-27.78 Y-2.145 F600
X-27.78 Y2.145 F600
X-26.117 Y5.819 F600
X-23.27 Y7.819 F600
X-20.058 Y7.569 F600
G0 Z2
(HARF: N)
G0 Z2
G0 X-6 Y-8
G1 Z-1.2 F200
X-6 Y8 F600
X2 Y-8 F600
X2 Y8 F600
G0 Z2
(HARF: C)
G0 Z2
G0 X22.596 Y-5.142
G1 Z-1.2 F200
X19.942 Y-7.569 F600
X16.73 Y-7.819 F600
X13.883 Y-5.819 F600
X12.22 Y-2.145 F600
X12.22 Y2.145 F600
X13.883 Y5.819 F600
X16.73 Y7.819 F600
X19.942 Y7.569 F600
G0 Z2
G0 Z10
M5
M30
%
