%
O2001 (KESICI TELAFILI DIS KONTUR)
(STOK 80 x 60 x 20 - SIFIR: UST YUZEY MERKEZ)
(T4 = 6MM PARMAK FREZE / D4 OFSETI PROGRAMDA TANIMLI)
(PROGRAMDAKI HAT PARCANIN KENARIDIR: 60 x 40 ADA)
N10 G21 G90 G17 G40 G49 G80
N12 G10 L12 P4 R3.
N14 T4 M6
N16 S4200 M3
N18 G54
N20 G0 X-42. Y-28.
N22 G43 H4 Z15. M8
N24 Z2.

(PASO 1 - Z-2.5)
N26 G1 Z-2.5 F200.
N28 G41 D4 X-30. Y-20. F700.
N30 Y20.
N32 X30.
N34 Y-20.
N36 X-30.
N38 G40 X-42. Y-28.
N40 G0 Z2.

(PASO 2 - Z-5, FINIS)
N42 G1 Z-5. F200.
N44 G41 D4 X-30. Y-20. F500.
N46 Y20.
N48 X30.
N50 Y-20.
N52 X-30.
N54 G40 X-42. Y-28.

N56 G0 Z15.
N58 M9
N60 M5
N62 G91 G28 Z0.
N64 G90
N66 M30
%
