%
(MATKAP SETI - 80x60x15)
(SIRA: PUNTA -> MATKAP -> HAVSA)
(T7 = 8mm PUNTA 90 / T8 = 5mm MATKAP 118 / T9 = 10mm HAVSA 90)
(NOT: SIMULASYON PANELDEKI TEK TAKIMLA OYAR)
G21 G90 G17
G54

(1 - PUNTA MATKABI: YER ISARETLE)
T7 M6
M3 S1800
G0 Z25
G0 X-25 Y-15
G0 Z5
G99 G81 X-25 Y-15 Z-2 R2 F100
X0 Y-15
X25 Y-15
X-25 Y15
X0 Y15
X25 Y15
G80
G0 Z25

(2 - MATKAP: GAGALAMALI DELME)
T8 M6
M3 S2600
G0 X-25 Y-15
G0 Z5
G99 G83 X-25 Y-15 Z-18 R2 Q3 F130
X0 Y-15
X25 Y-15
X-25 Y15
X0 Y15
X25 Y15
G80
G0 Z25

(3 - HAVSA: VIDA BASI YUVASI)
T9 M6
M3 S1200
G0 X-25 Y-15
G0 Z5
G98 G82 X-25 Y-15 Z-2.5 R2 P0.3 F90
X0 Y-15
X25 Y-15
X-25 Y15
X0 Y15
X25 Y15
G80
G0 Z25
M5
M30
%
