%
O1002 (N SATIR NUMARALI FANUC KONTUR)
(POST: FANUC 0i - HER BLOK N NUMARALI, HAREKET MODAL)
(STOK 80 x 60 x 20 - SIFIR: UST YUZEY MERKEZ)
(T2 = 6MM PARMAK FREZE)
N8 G90 G94 G17 G21 G40 G49
N10 T2 M6
N12 S4500 M3
N14 G54

(KONTUR PASO Z-2)
N16 G0 X34.000 Y-18.000
N18 G43 H2 Z15. M8
N20 Z2.
N22 G1 Z-2 F150.
N24 F600.
N26 Y18.000
N28 X33.909 Y19.042
N30 X33.638 Y20.052
N32 X33.196 Y21.000
N34 X32.596 Y21.857
N36 X31.857 Y22.596
N38 X31.000 Y23.196
N40 X30.052 Y23.638
N42 X29.042 Y23.909
N44 X28.000 Y24.000
N46 X-28.000
N48 X-29.042 Y23.909
N50 X-30.052 Y23.638
N52 X-31.000 Y23.196
N54 X-31.857 Y22.596
N56 X-32.596 Y21.857
N58 X-33.196 Y21.000
N60 X-33.638 Y20.052
N62 X-33.909 Y19.042
N64 X-34.000 Y18.000
N66 Y-18.000
N68 X-33.909 Y-19.042
N70 X-33.638 Y-20.052
N72 X-33.196 Y-21.000
N74 X-32.596 Y-21.857
N76 X-31.857 Y-22.596
N78 X-31.000 Y-23.196
N80 X-30.052 Y-23.638
N82 X-29.042 Y-23.909
N84 X-28.000 Y-24.000
N86 X28.000
N88 X29.042 Y-23.909
N90 X30.052 Y-23.638
N92 X31.000 Y-23.196
N94 X31.857 Y-22.596
N96 X32.596 Y-21.857
N98 X33.196 Y-21.000
N100 X33.638 Y-20.052
N102 X33.909 Y-19.042
N104 X34.000 Y-18.000
N106 G0 Z15.

(KONTUR PASO Z-4)
N108 G0 X34.000 Y-18.000
N110 Z15.
N112 Z2.
N114 G1 Z-4 F150.
N116 F600.
N118 Y18.000
N120 X33.909 Y19.042
N122 X33.638 Y20.052
N124 X33.196 Y21.000
N126 X32.596 Y21.857
N128 X31.857 Y22.596
N130 X31.000 Y23.196
N132 X30.052 Y23.638
N134 X29.042 Y23.909
N136 X28.000 Y24.000
N138 X-28.000
N140 X-29.042 Y23.909
N142 X-30.052 Y23.638
N144 X-31.000 Y23.196
N146 X-31.857 Y22.596
N148 X-32.596 Y21.857
N150 X-33.196 Y21.000
N152 X-33.638 Y20.052
N154 X-33.909 Y19.042
N156 X-34.000 Y18.000
N158 Y-18.000
N160 X-33.909 Y-19.042
N162 X-33.638 Y-20.052
N164 X-33.196 Y-21.000
N166 X-32.596 Y-21.857
N168 X-31.857 Y-22.596
N170 X-31.000 Y-23.196
N172 X-30.052 Y-23.638
N174 X-29.042 Y-23.909
N176 X-28.000 Y-24.000
N178 X28.000
N180 X29.042 Y-23.909
N182 X30.052 Y-23.638
N184 X31.000 Y-23.196
N186 X31.857 Y-22.596
N188 X32.596 Y-21.857
N190 X33.196 Y-21.000
N192 X33.638 Y-20.052
N194 X33.909 Y-19.042
N196 X34.000 Y-18.000
N198 G0 Z15.

(PROGRAM SONU)
N200 M9
N202 G91 G28 Z0.
N204 G90
N206 M30
%
