%
(DELIK TABLASI - 100x80x12 ALUMINYUM)
(SIFIR: PARCA MERKEZI, UST YUZEY Z0)
(T1 = 6mm MATKAP)
G21 G90 G17 G40 G49
G54
T1 M6
M3 S2400
G0 Z25

(CIVATA DAIRESI - 6 DELIK R30 - G83 GAGALAMA)
G0 X30 Y0
G0 Z5
G99 G83 X30 Y0 Z-14 R2 Q3 F140
X15 Y25.981
X-15 Y25.981
X-30 Y0
X-15 Y-25.981
X15 Y-25.981
G80
G0 Z25

(KOSE DELIKLERI - G81)
G0 X-40 Y-30
G0 Z5
G99 G81 X-40 Y-30 Z-14 R2 F120
X40 Y-30
X40 Y30
X-40 Y30
G80
G0 Z25

(MERKEZ DELIK - DERIN GAGALAMA)
G0 X0 Y0
G0 Z5
G98 G83 X0 Y0 Z-14 R2 Q2 F100
G80

(HAVSA - G82 DIPTE BEKLEME)
G98 G82 X0 Y0 Z-3 R2 P0.5 F90
G80
G0 Z25
M5
M30
%
