%
(INC PROGRAM - G20)
(HAM BLOK 3.0 x 2.0 x 0.5 INCH)
(T2 = 0.25 INCH PARMAK FREZE)
G20 G90 G17
G54
M6 T2
M3 S2800
G0 Z1.0

(DIKDORTGEN CEP - 1.5 x 1.0 INCH, 0.2 INCH DERIN)
(PASO Z-0.05)
G0 X-0.625 Y-0.375
G0 Z0.05
G1 Z-0.05 F8
F20
X0.625
Y0.375
X-0.625
Y-0.375
G0 Z0.2
(PASO Z-0.1)
G0 X-0.625 Y-0.375
G0 Z0.05
G1 Z-0.1 F8
F20
X0.625
Y0.375
X-0.625
Y-0.375
G0 Z0.2
(PASO Z-0.15)
G0 X-0.625 Y-0.375
G0 Z0.05
G1 Z-0.15 F8
F20
X0.625
Y0.375
X-0.625
Y-0.375
G0 Z0.2
(PASO Z-0.2)
G0 X-0.625 Y-0.375
G0 Z0.05
G1 Z-0.2 F8
F20
X0.625
Y0.375
X-0.625
Y-0.375
G0 Z0.2
G0 Z1.0

(DELIKLER - G81, 0.4 INCH DERIN)
G0 X-1.25 Y-0.75
G0 Z0.2
G99 G81 X-1.25 Y-0.75 Z-0.4 R0.1 F5
X1.25 Y-0.75
X1.25 Y0.75
X-1.25 Y0.75
G80
G0 Z1.0
M5
M30
%
