; Ornek: CNC cep (pocket) frezeleme
; 60x40mm stok, 40x20mm cep, 3 derinlik gecisi (Z: -2/-4/-6mm)
; G0 = hizli bos hareket, G1 = kesim. (E ekseni yok — gercek CNC formati.)
G21
G90
G17
T1 M6
M3 S3200
G0 Z5
G0 X10 Y10
G1 Z-2 F300
G1 X50 Y10 F800
G1 X50 Y30 F800
G1 X10 Y30 F800
G1 X10 Y10 F800
G0 Z5
G0 X10 Y10
G1 Z-4 F300
G1 X50 Y10 F800
G1 X50 Y30 F800
G1 X10 Y30 F800
G1 X10 Y10 F800
G0 Z5
G0 X10 Y10
G1 Z-6 F300
G1 X50 Y10 F800
G1 X50 Y30 F800
G1 X10 Y30 F800
G1 X10 Y10 F800
G0 Z5
G0 X14 Y14
G1 Z-6 F300
G1 X46 Y14 F800
G1 X46 Y18 F800
G1 X14 Y18 F800
G1 X14 Y22 F800
G1 X46 Y22 F800
G1 X46 Y26 F800
G1 X14 Y26 F800
G0 Z5
G0 X0 Y0
M30
