%
(MODAL KONTUR - 80x60x15)
(KOMUT SOZCUGU TEKRAR EDILMEZ: G1 MODALDIR)
(T3 = 6mm PARMAK FREZE)
G21 G90 G17
G54
M6 T3
M3 S3200
G0 Z20

(KONTUR PASO 1 - Z-2)
G0 X-34 Y-24
G0 Z1
G1 Z-2 F150
F600
X34
Y24
X-34
Y-24
G0 Z20

(KONTUR PASO 2 - Z-4)
G0 X-34 Y-24
G0 Z1
G1 Z-4 F150
F600
X34
Y24
X-34
Y-24
G0 Z20

(KONTUR PASO 3 - Z-6)
G0 X-34 Y-24
G0 Z1
G1 Z-6 F150
F600
X34
Y24
X-34
Y-24
G0 Z20

(KONTUR PASO 4 - Z-8)
G0 X-34 Y-24
G0 Z1
G1 Z-8 F150
F600
X34
Y24
X-34
Y-24
G0 Z20

(ORTA KANAL - 10mm GENIS, Z-5)
G0 X-25 Y0
G0 Z1
G1 Z-1 F150
F500
X25
X-25
G1 Z-2 F150
F500
X25
X-25
G1 Z-3 F150
F500
X25
X-25
G1 Z-4 F150
F500
X25
X-25
G1 Z-5 F150
F500
X25
X-25
G0 Z20
M5
M30
%
