%
(OLCUM ALISTIRMASI - 100x70x20)
(BILINEN OLCULER: OLCUM ARACIYLA DOGRULAYIN)
(NOT: OLCUM HASSASIYETI VOXEL COZUNURLUGUNE BAGLIDIR)
(- BASAMAKLAR: Z -3 / -6 / -9)
(- CEP: 30 x 20, DERINLIK 5)
(- DELIK MERKEZLERI ARASI: 40 mm)
(T1 = 6mm DUZ PARMAK FREZE)
G21 G90 G17
G54
T1 M6
M3 S3000
G0 Z25

(1 - BASAMAKLAR)
(BASAMAK 1 - Z-3)
G0 Z5
G0 X-42 Y-32
G1 Z-3 F150
F700
X-28
Y-28
X-42
Y-24
X-28
Y-20
X-42
Y-16
X-28
Y-12
X-42
Y-8
X-28
Y-4
X-42
Y0
X-28
Y4
X-42
Y8
X-28
Y12
X-42
Y16
X-28
Y20
X-42
Y24
X-28
Y28
X-42
Y32
X-28
G0 Z5
(BASAMAK 2 - Z-6)
G0 Z5
G0 X-22 Y-32
G1 Z-6 F150
F700
X-8
Y-28
X-22
Y-24
X-8
Y-20
X-22
Y-16
X-8
Y-12
X-22
Y-8
X-8
Y-4
X-22
Y0
X-8
Y4
X-22
Y8
X-8
Y12
X-22
Y16
X-8
Y20
X-22
Y24
X-8
Y28
X-22
Y32
X-8
G0 Z5
(BASAMAK 3 - Z-9)
G0 Z5
G0 X-2 Y-32
G1 Z-9 F150
F700
X12
Y-28
X-2
Y-24
X12
Y-20
X-2
Y-16
X12
Y-12
X-2
Y-8
X12
Y-4
X-2
Y0
X12
Y4
X-2
Y8
X12
Y12
X-2
Y16
X12
Y20
X-2
Y24
X12
Y28
X-2
Y32
X12
G0 Z5

(2 - CEP 30x20, DERINLIK 5 - TAM BOSALTILIR)
G0 Z5
G0 X30 Y-7
G1 Z-5 F150
F600
X42
Y-4
X30
Y-1
X42
Y2
X30
Y5
X42
Y7
X30
(CEP FINIS KONTURU)
G1 X30 Y-7 F500
X42
Y7
X30
Y-7
G0 Z5
(3 - IKI DELIK - MERKEZLER ARASI 40 mm)
G0 Z25
G0 X-20 Y25
G0 Z5
G99 G81 X-20 Y25 Z-22 R2 F120
X20 Y25
G80
G0 Z25
M5
M30
%
