%
(HELISEL DALISLI DAIRESEL CEP - 70x70x20)
(T4 = 6mm PARMAK FREZE)
G21 G90 G17
G54
M6 T4
M3 S4000
G0 Z20

(HELISEL DALIS - R3 DAIRE, TUR BASINA 1mm)
(KUCUK YARICAP: TAKIM MERKEZI DE TEMIZLER, ADA KALMAZ)
G0 X3 Y0
G0 Z1
G1 Z0 F200
G2 X3 Y0 I-3 J0 Z-1 F350
G2 X3 Y0 I-3 J0 Z-2 F350
G2 X3 Y0 I-3 J0 Z-3 F350
G2 X3 Y0 I-3 J0 Z-4 F350
G2 X3 Y0 I-3 J0 Z-5 F350
G2 X3 Y0 I-3 J0 Z-6 F350
G2 X3 Y0 I-3 J0 Z-7 F350
G2 X3 Y0 I-3 J0 Z-8 F350
G2 X3 Y0 I-3 J0 Z-9 F350
G2 X3 Y0 I-3 J0 Z-10 F350
G2 X3 Y0 I-3 J0 Z-11 F350
G2 X3 Y0 I-3 J0 Z-12 F350

(TABAN TEMIZLEME - SPIRAL DISARI)
(HER YARIM TUR MERKEZI KAYDIRIR: BASLANGIC VE BITIS YARICAPI ESIT KALIR)
G3 X-5 Y0 I-4 J0 F400
G3 X7 Y0 I6 J0
G3 X-9 Y0 I-8 J0
G3 X11 Y0 I10 J0
G3 X-13 Y0 I-12 J0
G3 X15 Y0 I14 J0
G3 X-17 Y0 I-16 J0
G3 X19 Y0 I18 J0
G3 X-21 Y0 I-20 J0
G3 X22 Y0 I21.5 J0
(CEVRE FINIS PASOSU - TAM CEMBER)
G3 X22 Y0 I-22 J0 F300
G0 Z20

(IKINCI CEP - G90.1 MUTLAK YAY MERKEZI)
G90.1
G0 X-12 Y20
G0 Z1
G1 Z-4 F150
(MERKEZ MUTLAK VERILIR: I/J = CEMBER MERKEZI)
G2 X-12 Y20 I-20 J20 F350
G91.1
G0 Z20
M5
M30
%
