; Ornek: %100 dolgulu (infill) katiki kup
; 20x20x20mm, 10 katman x 2mm (kalin katman, dosyayi kisa tutmak icin)
; Her katman: dis cerceve + tam alani tarayan zikzak dolgu (surekli, tek parca)
G90
M82
G28
G1 Z2.00 F600
G1 X10 Y10 F1500
G1 X30.00 Y10.00 E1.000 F1200
G1 X30.00 Y30.00 E2.000 F1200
G1 X10.00 Y30.00 E3.000 F1200
G1 X10.00 Y10.00 E4.000 F1200
G1 X10.00 Y12.00 F1500
G1 X30.00 Y12.00 E5.000 F1500
G1 X30.00 Y14.00 E5.100 F1500
G1 X10.00 Y14.00 E6.100 F1500
G1 X10.00 Y16.00 E6.200 F1500
G1 X30.00 Y16.00 E7.200 F1500
G1 X30.00 Y18.00 E7.300 F1500
G1 X10.00 Y18.00 E8.300 F1500
G1 X10.00 Y20.00 E8.400 F1500
G1 X30.00 Y20.00 E9.400 F1500
G1 X30.00 Y22.00 E9.500 F1500
G1 X10.00 Y22.00 E10.500 F1500
G1 X10.00 Y24.00 E10.600 F1500
G1 X30.00 Y24.00 E11.600 F1500
G1 X30.00 Y26.00 E11.700 F1500
G1 X10.00 Y26.00 E12.700 F1500
G1 X10.00 Y28.00 E12.800 F1500
G1 X30.00 Y28.00 E13.800 F1500
G1 X10.00 Y10.00 Z4.00 F1500
G1 X30.00 Y10.00 E14.800 F1200
G1 X30.00 Y30.00 E15.800 F1200
G1 X10.00 Y30.00 E16.800 F1200
G1 X10.00 Y10.00 E17.800 F1200
G1 X10.00 Y12.00 F1500
G1 X30.00 Y12.00 E18.800 F1500
G1 X30.00 Y14.00 E18.900 F1500
G1 X10.00 Y14.00 E19.900 F1500
G1 X10.00 Y16.00 E20.000 F1500
G1 X30.00 Y16.00 E21.000 F1500
G1 X30.00 Y18.00 E21.100 F1500
G1 X10.00 Y18.00 E22.100 F1500
G1 X10.00 Y20.00 E22.200 F1500
G1 X30.00 Y20.00 E23.200 F1500
G1 X30.00 Y22.00 E23.300 F1500
G1 X10.00 Y22.00 E24.300 F1500
G1 X10.00 Y24.00 E24.400 F1500
G1 X30.00 Y24.00 E25.400 F1500
G1 X30.00 Y26.00 E25.500 F1500
G1 X10.00 Y26.00 E26.500 F1500
G1 X10.00 Y28.00 E26.600 F1500
G1 X30.00 Y28.00 E27.600 F1500
G1 X10.00 Y10.00 Z6.00 F1500
G1 X30.00 Y10.00 E28.600 F1200
G1 X30.00 Y30.00 E29.600 F1200
G1 X10.00 Y30.00 E30.600 F1200
G1 X10.00 Y10.00 E31.600 F1200
G1 X10.00 Y12.00 F1500
G1 X30.00 Y12.00 E32.600 F1500
G1 X30.00 Y14.00 E32.700 F1500
G1 X10.00 Y14.00 E33.700 F1500
G1 X10.00 Y16.00 E33.800 F1500
G1 X30.00 Y16.00 E34.800 F1500
G1 X30.00 Y18.00 E34.900 F1500
G1 X10.00 Y18.00 E35.900 F1500
G1 X10.00 Y20.00 E36.000 F1500
G1 X30.00 Y20.00 E37.000 F1500
G1 X30.00 Y22.00 E37.100 F1500
G1 X10.00 Y22.00 E38.100 F1500
G1 X10.00 Y24.00 E38.200 F1500
G1 X30.00 Y24.00 E39.200 F1500
G1 X30.00 Y26.00 E39.300 F1500
G1 X10.00 Y26.00 E40.300 F1500
G1 X10.00 Y28.00 E40.400 F1500
G1 X30.00 Y28.00 E41.400 F1500
G1 X10.00 Y10.00 Z8.00 F1500
G1 X30.00 Y10.00 E42.400 F1200
G1 X30.00 Y30.00 E43.400 F1200
G1 X10.00 Y30.00 E44.400 F1200
G1 X10.00 Y10.00 E45.400 F1200
G1 X10.00 Y12.00 F1500
G1 X30.00 Y12.00 E46.400 F1500
G1 X30.00 Y14.00 E46.500 F1500
G1 X10.00 Y14.00 E47.500 F1500
G1 X10.00 Y16.00 E47.600 F1500
G1 X30.00 Y16.00 E48.600 F1500
G1 X30.00 Y18.00 E48.700 F1500
G1 X10.00 Y18.00 E49.700 F1500
G1 X10.00 Y20.00 E49.800 F1500
G1 X30.00 Y20.00 E50.800 F1500
G1 X30.00 Y22.00 E50.900 F1500
G1 X10.00 Y22.00 E51.900 F1500
G1 X10.00 Y24.00 E52.000 F1500
G1 X30.00 Y24.00 E53.000 F1500
G1 X30.00 Y26.00 E53.100 F1500
G1 X10.00 Y26.00 E54.100 F1500
G1 X10.00 Y28.00 E54.200 F1500
G1 X30.00 Y28.00 E55.200 F1500
G1 X10.00 Y10.00 Z10.00 F1500
G1 X30.00 Y10.00 E56.200 F1200
G1 X30.00 Y30.00 E57.200 F1200
G1 X10.00 Y30.00 E58.200 F1200
G1 X10.00 Y10.00 E59.200 F1200
G1 X10.00 Y12.00 F1500
G1 X30.00 Y12.00 E60.200 F1500
G1 X30.00 Y14.00 E60.300 F1500
G1 X10.00 Y14.00 E61.300 F1500
G1 X10.00 Y16.00 E61.400 F1500
G1 X30.00 Y16.00 E62.400 F1500
G1 X30.00 Y18.00 E62.500 F1500
G1 X10.00 Y18.00 E63.500 F1500
G1 X10.00 Y20.00 E63.600 F1500
G1 X30.00 Y20.00 E64.600 F1500
G1 X30.00 Y22.00 E64.700 F1500
G1 X10.00 Y22.00 E65.700 F1500
G1 X10.00 Y24.00 E65.800 F1500
G1 X30.00 Y24.00 E66.800 F1500
G1 X30.00 Y26.00 E66.900 F1500
G1 X10.00 Y26.00 E67.900 F1500
G1 X10.00 Y28.00 E68.000 F1500
G1 X30.00 Y28.00 E69.000 F1500
G1 X10.00 Y10.00 Z12.00 F1500
G1 X30.00 Y10.00 E70.000 F1200
G1 X30.00 Y30.00 E71.000 F1200
G1 X10.00 Y30.00 E72.000 F1200
G1 X10.00 Y10.00 E73.000 F1200
G1 X10.00 Y12.00 F1500
G1 X30.00 Y12.00 E74.000 F1500
G1 X30.00 Y14.00 E74.100 F1500
G1 X10.00 Y14.00 E75.100 F1500
G1 X10.00 Y16.00 E75.200 F1500
G1 X30.00 Y16.00 E76.200 F1500
G1 X30.00 Y18.00 E76.300 F1500
G1 X10.00 Y18.00 E77.300 F1500
G1 X10.00 Y20.00 E77.400 F1500
G1 X30.00 Y20.00 E78.400 F1500
G1 X30.00 Y22.00 E78.500 F1500
G1 X10.00 Y22.00 E79.500 F1500
G1 X10.00 Y24.00 E79.600 F1500
G1 X30.00 Y24.00 E80.600 F1500
G1 X30.00 Y26.00 E80.700 F1500
G1 X10.00 Y26.00 E81.700 F1500
G1 X10.00 Y28.00 E81.800 F1500
G1 X30.00 Y28.00 E82.800 F1500
G1 X10.00 Y10.00 Z14.00 F1500
G1 X30.00 Y10.00 E83.800 F1200
G1 X30.00 Y30.00 E84.800 F1200
G1 X10.00 Y30.00 E85.800 F1200
G1 X10.00 Y10.00 E86.800 F1200
G1 X10.00 Y12.00 F1500
G1 X30.00 Y12.00 E87.800 F1500
G1 X30.00 Y14.00 E87.900 F1500
G1 X10.00 Y14.00 E88.900 F1500
G1 X10.00 Y16.00 E89.000 F1500
G1 X30.00 Y16.00 E90.000 F1500
G1 X30.00 Y18.00 E90.100 F1500
G1 X10.00 Y18.00 E91.100 F1500
G1 X10.00 Y20.00 E91.200 F1500
G1 X30.00 Y20.00 E92.200 F1500
G1 X30.00 Y22.00 E92.300 F1500
G1 X10.00 Y22.00 E93.300 F1500
G1 X10.00 Y24.00 E93.400 F1500
G1 X30.00 Y24.00 E94.400 F1500
G1 X30.00 Y26.00 E94.500 F1500
G1 X10.00 Y26.00 E95.500 F1500
G1 X10.00 Y28.00 E95.600 F1500
G1 X30.00 Y28.00 E96.600 F1500
G1 X10.00 Y10.00 Z16.00 F1500
G1 X30.00 Y10.00 E97.600 F1200
G1 X30.00 Y30.00 E98.600 F1200
G1 X10.00 Y30.00 E99.600 F1200
G1 X10.00 Y10.00 E100.600 F1200
G1 X10.00 Y12.00 F1500
G1 X30.00 Y12.00 E101.600 F1500
G1 X30.00 Y14.00 E101.700 F1500
G1 X10.00 Y14.00 E102.700 F1500
G1 X10.00 Y16.00 E102.800 F1500
G1 X30.00 Y16.00 E103.800 F1500
G1 X30.00 Y18.00 E103.900 F1500
G1 X10.00 Y18.00 E104.900 F1500
G1 X10.00 Y20.00 E105.000 F1500
G1 X30.00 Y20.00 E106.000 F1500
G1 X30.00 Y22.00 E106.100 F1500
G1 X10.00 Y22.00 E107.100 F1500
G1 X10.00 Y24.00 E107.200 F1500
G1 X30.00 Y24.00 E108.200 F1500
G1 X30.00 Y26.00 E108.300 F1500
G1 X10.00 Y26.00 E109.300 F1500
G1 X10.00 Y28.00 E109.400 F1500
G1 X30.00 Y28.00 E110.400 F1500
G1 X10.00 Y10.00 Z18.00 F1500
G1 X30.00 Y10.00 E111.400 F1200
G1 X30.00 Y30.00 E112.400 F1200
G1 X10.00 Y30.00 E113.400 F1200
G1 X10.00 Y10.00 E114.400 F1200
G1 X10.00 Y12.00 F1500
G1 X30.00 Y12.00 E115.400 F1500
G1 X30.00 Y14.00 E115.500 F1500
G1 X10.00 Y14.00 E116.500 F1500
G1 X10.00 Y16.00 E116.600 F1500
G1 X30.00 Y16.00 E117.600 F1500
G1 X30.00 Y18.00 E117.700 F1500
G1 X10.00 Y18.00 E118.700 F1500
G1 X10.00 Y20.00 E118.800 F1500
G1 X30.00 Y20.00 E119.800 F1500
G1 X30.00 Y22.00 E119.900 F1500
G1 X10.00 Y22.00 E120.900 F1500
G1 X10.00 Y24.00 E121.000 F1500
G1 X30.00 Y24.00 E122.000 F1500
G1 X30.00 Y26.00 E122.100 F1500
G1 X10.00 Y26.00 E123.100 F1500
G1 X10.00 Y28.00 E123.200 F1500
G1 X30.00 Y28.00 E124.200 F1500
G1 X10.00 Y10.00 Z20.00 F1500
G1 X30.00 Y10.00 E125.200 F1200
G1 X30.00 Y30.00 E126.200 F1200
G1 X10.00 Y30.00 E127.200 F1200
G1 X10.00 Y10.00 E128.200 F1200
G1 X10.00 Y12.00 F1500
G1 X30.00 Y12.00 E129.200 F1500
G1 X30.00 Y14.00 E129.300 F1500
G1 X10.00 Y14.00 E130.300 F1500
G1 X10.00 Y16.00 E130.400 F1500
G1 X30.00 Y16.00 E131.400 F1500
G1 X30.00 Y18.00 E131.500 F1500
G1 X10.00 Y18.00 E132.500 F1500
G1 X10.00 Y20.00 E132.600 F1500
G1 X30.00 Y20.00 E133.600 F1500
G1 X30.00 Y22.00 E133.700 F1500
G1 X10.00 Y22.00 E134.700 F1500
G1 X10.00 Y24.00 E134.800 F1500
G1 X30.00 Y24.00 E135.800 F1500
G1 X30.00 Y26.00 E135.900 F1500
G1 X10.00 Y26.00 E136.900 F1500
G1 X10.00 Y28.00 E137.000 F1500
G1 X30.00 Y28.00 E138.000 F1500
G1 Z25 F600
G28
