%
(HOLDER - KONNEKTOR YUVASI)
(HAM BLOK: DERLIN 45 x 60 x 80 - TESTEREDEN CIKMIS)
(SIFIR: BLOK MERKEZI, UST YUZEY Z0)
(T1 = 6mm PARMAK FREZE / T2 = 6mm MATKAP)
G21 G90 G17 G40 G49
G54
T1 M6
M3 S3000
G0 Z25

(1 - KONNEKTOR CEBI 26x18 DERINLIK 14)
(CEP PASO Z-2.5)
G0 X-10 Y-6
G0 Z1
G1 Z-2.5 F120
F450
X10
Y-2
X-10
Y2
X10
Y6
X-10
G1 X-10 Y-6 F400
X10
Y6
X-10
Y-6
G0 Z5
(CEP PASO Z-5)
G0 X-10 Y-6
G0 Z1
G1 Z-5 F120
F450
X10
Y-2
X-10
Y2
X10
Y6
X-10
G1 X-10 Y-6 F400
X10
Y6
X-10
Y-6
G0 Z5
(CEP PASO Z-7.5)
G0 X-10 Y-6
G0 Z1
G1 Z-7.5 F120
F450
X10
Y-2
X-10
Y2
X10
Y6
X-10
G1 X-10 Y-6 F400
X10
Y6
X-10
Y-6
G0 Z5
(CEP PASO Z-10)
G0 X-10 Y-6
G0 Z1
G1 Z-10 F120
F450
X10
Y-2
X-10
Y2
X10
Y6
X-10
G1 X-10 Y-6 F400
X10
Y6
X-10
Y-6
G0 Z5
(CEP PASO Z-12.5)
G0 X-10 Y-6
G0 Z1
G1 Z-12.5 F120
F450
X10
Y-2
X-10
Y2
X10
Y6
X-10
G1 X-10 Y-6 F400
X10
Y6
X-10
Y-6
G0 Z5
(CEP PASO Z-14)
G0 X-10 Y-6
G0 Z1
G1 Z-14 F120
F450
X10
Y-2
X-10
Y2
X10
Y6
X-10
G1 X-10 Y-6 F400
X10
Y6
X-10
Y-6
G0 Z5
G0 Z25

(2 - VIDA DELIKLERI - G83 GAGALAMA)
T2 M6
M3 S2200
G0 X-16 Y-22
G0 Z5
G99 G83 X-16 Y-22 Z-20 R2 Q4 F130
X16 Y-22
X16 Y22
X-16 Y22
G80
G0 Z25

(3 - KABLO KANALI - Y EKSENI BOYUNCA)
T1 M6
M3 S3000
G0 X0 Y-30
G0 Z1
G1 Z-2 F120
F400
Y30
Y-30
G1 Z-4 F120
F400
Y30
Y-30
G1 Z-6 F120
F400
Y30
Y-30
G0 Z25

(4 - UST KENAR PAH - Z-1)
G0 X-19.5 Y-27
G0 Z1
G1 Z-1 F150
F500
X19.5
Y27
X-19.5
Y-27
G0 Z25
M5
M30
%
