; Ornek: 3 katmanli kare cerceve (FDM)
; 20x20mm, katman yuksekligi 0.2mm
G90
M82
G28
G1 Z0.2 F600
G1 X10 Y10 F1500
G1 X30 Y10 E2.0 F900
G1 X30 Y30 E4.0
G1 X10 Y30 E6.0
G1 X10 Y10 E8.0
G1 X15 Y15 F1500
G1 X25 Y15 E9.2 F900
G1 X25 Y25 E10.4
G1 X15 Y25 E11.6
G1 X15 Y15 E12.8
G1 Z0.4 F600
G1 X10 Y10 F1500
G1 X30 Y10 E15.0 F900
G1 X30 Y30 E17.0
G1 X10 Y30 E19.0
G1 X10 Y10 E21.0
G1 X15 Y15 F1500
G1 X25 Y15 E22.2 F900
G1 X25 Y25 E23.4
G1 X15 Y25 E24.6
G1 X15 Y15 E25.8
G1 Z0.6 F600
G1 X10 Y10 F1500
G1 X30 Y10 E28.0 F900
G1 X30 Y30 E30.0
G1 X10 Y30 E32.0
G1 X10 Y10 E34.0
G1 X15 Y15 F1500
G1 X25 Y15 E35.2 F900
G1 X25 Y25 E36.4
G1 X15 Y25 E37.6
G1 X15 Y15 E38.8
G28
