; Ornek: spiral vazo (vase mode benzeri, tek cidar surekli yukselen Z)
; Sekizgen govde, taban yaricapi 15mm, toplam yukseklik 20mm
G90
M82
G28
G1 Z0.2 F600
G1 X15.000 Y0.000 F1500
G1 X10.607 Y10.607 Z0.325 E1.10 F900
G1 X0.000 Y15.000 Z0.450 E2.20 F900
G1 X-10.607 Y10.607 Z0.575 E3.30 F900
G1 X-15.000 Y0.000 Z0.700 E4.40 F900
G1 X-10.607 Y-10.607 Z0.825 E5.50 F900
G1 X-0.000 Y-15.000 Z0.950 E6.60 F900
G1 X10.607 Y-10.607 Z1.075 E7.70 F900
G1 X15.000 Y-0.000 Z1.200 E8.80 F900
G1 X10.607 Y10.607 Z1.325 E9.90 F900
G1 X0.000 Y15.000 Z1.450 E11.00 F900
G1 X-10.607 Y10.607 Z1.575 E12.10 F900
G1 X-15.000 Y0.000 Z1.700 E13.20 F900
G1 X-10.607 Y-10.607 Z1.825 E14.30 F900
G1 X-0.000 Y-15.000 Z1.950 E15.40 F900
G1 X10.607 Y-10.607 Z2.075 E16.50 F900
G1 X15.000 Y-0.000 Z2.200 E17.60 F900
G1 X10.607 Y10.607 Z2.325 E18.70 F900
G1 X0.000 Y15.000 Z2.450 E19.80 F900
G1 X-10.607 Y10.607 Z2.575 E20.90 F900
G1 X-15.000 Y0.000 Z2.700 E22.00 F900
G1 X-10.607 Y-10.607 Z2.825 E23.10 F900
G1 X-0.000 Y-15.000 Z2.950 E24.20 F900
G1 X10.607 Y-10.607 Z3.075 E25.30 F900
G1 X15.000 Y-0.000 Z3.200 E26.40 F900
G1 X10.607 Y10.607 Z3.325 E27.50 F900
G1 X-0.000 Y15.000 Z3.450 E28.60 F900
G1 X-10.607 Y10.607 Z3.575 E29.70 F900
G1 X-15.000 Y0.000 Z3.700 E30.80 F900
G1 X-10.607 Y-10.607 Z3.825 E31.90 F900
G1 X-0.000 Y-15.000 Z3.950 E33.00 F900
G1 X10.607 Y-10.607 Z4.075 E34.10 F900
G1 X15.000 Y-0.000 Z4.200 E35.20 F900
G1 X10.607 Y10.607 Z4.325 E36.30 F900
G1 X-0.000 Y15.000 Z4.450 E37.40 F900
G1 X-10.607 Y10.607 Z4.575 E38.50 F900
G1 X-15.000 Y0.000 Z4.700 E39.60 F900
G1 X-10.607 Y-10.607 Z4.825 E40.70 F900
G1 X-0.000 Y-15.000 Z4.950 E41.80 F900
G1 X10.607 Y-10.607 Z5.075 E42.90 F900
G1 X15.000 Y-0.000 Z5.200 E44.00 F900
G1 X10.607 Y10.607 Z5.325 E45.10 F900
G1 X-0.000 Y15.000 Z5.450 E46.20 F900
G1 X-10.607 Y10.607 Z5.575 E47.30 F900
G1 X-15.000 Y0.000 Z5.700 E48.40 F900
G1 X-10.607 Y-10.607 Z5.825 E49.50 F900
G1 X-0.000 Y-15.000 Z5.950 E50.60 F900
G1 X10.607 Y-10.607 Z6.075 E51.70 F900
G1 X15.000 Y-0.000 Z6.200 E52.80 F900
G1 X10.607 Y10.607 Z6.325 E53.90 F900
G1 X-0.000 Y15.000 Z6.450 E55.00 F900
G1 X-10.607 Y10.607 Z6.575 E56.10 F900
G1 X-15.000 Y-0.000 Z6.700 E57.20 F900
G1 X-10.607 Y-10.607 Z6.825 E58.30 F900
G1 X-0.000 Y-15.000 Z6.950 E59.40 F900
G1 X10.607 Y-10.607 Z7.075 E60.50 F900
G1 X15.000 Y-0.000 Z7.200 E61.60 F900
G1 X10.607 Y10.607 Z7.325 E62.70 F900
G1 X-0.000 Y15.000 Z7.450 E63.80 F900
G1 X-10.607 Y10.607 Z7.575 E64.90 F900
G1 X-15.000 Y0.000 Z7.700 E66.00 F900
G1 X-10.607 Y-10.607 Z7.825 E67.10 F900
G1 X-0.000 Y-15.000 Z7.950 E68.20 F900
G1 X10.607 Y-10.607 Z8.075 E69.30 F900
G1 X15.000 Y-0.000 Z8.200 E70.40 F900
G1 X10.607 Y10.607 Z8.325 E71.50 F900
G1 X0.000 Y15.000 Z8.450 E72.60 F900
G1 X-10.607 Y10.607 Z8.575 E73.70 F900
G1 X-15.000 Y-0.000 Z8.700 E74.80 F900
G1 X-10.607 Y-10.607 Z8.825 E75.90 F900
G1 X-0.000 Y-15.000 Z8.950 E77.00 F900
G1 X10.607 Y-10.607 Z9.075 E78.10 F900
G1 X15.000 Y-0.000 Z9.200 E79.20 F900
G1 X10.607 Y10.607 Z9.325 E80.30 F900
G1 X0.000 Y15.000 Z9.450 E81.40 F900
G1 X-10.607 Y10.607 Z9.575 E82.50 F900
G1 X-15.000 Y0.000 Z9.700 E83.60 F900
G1 X-10.607 Y-10.607 Z9.825 E84.70 F900
G1 X-0.000 Y-15.000 Z9.950 E85.80 F900
G1 X10.607 Y-10.607 Z10.075 E86.90 F900
G1 X15.000 Y-0.000 Z10.200 E88.00 F900
G1 X10.607 Y10.607 Z10.325 E89.10 F900
G1 X0.000 Y15.000 Z10.450 E90.20 F900
G1 X-10.607 Y10.607 Z10.575 E91.30 F900
G1 X-15.000 Y-0.000 Z10.700 E92.40 F900
G1 X-10.607 Y-10.607 Z10.825 E93.50 F900
G1 X-0.000 Y-15.000 Z10.950 E94.60 F900
G1 X10.607 Y-10.607 Z11.075 E95.70 F900
G1 X15.000 Y-0.000 Z11.200 E96.80 F900
G1 X10.607 Y10.607 Z11.325 E97.90 F900
G1 X0.000 Y15.000 Z11.450 E99.00 F900
G1 X-10.607 Y10.607 Z11.575 E100.10 F900
G1 X-15.000 Y0.000 Z11.700 E101.20 F900
G1 X-10.607 Y-10.607 Z11.825 E102.30 F900
G1 X0.000 Y-15.000 Z11.950 E103.40 F900
G1 X10.607 Y-10.607 Z12.075 E104.50 F900
G1 X15.000 Y-0.000 Z12.200 E105.60 F900
G1 X10.607 Y10.607 Z12.325 E106.70 F900
G1 X0.000 Y15.000 Z12.450 E107.80 F900
G1 X-10.607 Y10.607 Z12.575 E108.90 F900
G1 X-15.000 Y-0.000 Z12.700 E110.00 F900
G1 X-10.607 Y-10.607 Z12.825 E111.10 F900
G1 X-0.000 Y-15.000 Z12.950 E112.20 F900
G1 X10.607 Y-10.607 Z13.075 E113.30 F900
G1 X15.000 Y0.000 Z13.200 E114.40 F900
G1 X10.607 Y10.607 Z13.325 E115.50 F900
G1 X0.000 Y15.000 Z13.450 E116.60 F900
G1 X-10.607 Y10.607 Z13.575 E117.70 F900
G1 X-15.000 Y0.000 Z13.700 E118.80 F900
G1 X-10.607 Y-10.607 Z13.825 E119.90 F900
G1 X0.000 Y-15.000 Z13.950 E121.00 F900
G1 X10.607 Y-10.607 Z14.075 E122.10 F900
G1 X15.000 Y-0.000 Z14.200 E123.20 F900
G1 X10.607 Y10.607 Z14.325 E124.30 F900
G1 X0.000 Y15.000 Z14.450 E125.40 F900
G1 X-10.607 Y10.607 Z14.575 E126.50 F900
G1 X-15.000 Y-0.000 Z14.700 E127.60 F900
G1 X-10.607 Y-10.607 Z14.825 E128.70 F900
G1 X-0.000 Y-15.000 Z14.950 E129.80 F900
G1 X10.607 Y-10.607 Z15.075 E130.90 F900
G1 X15.000 Y-0.000 Z15.200 E132.00 F900
G1 X10.607 Y10.607 Z15.325 E133.10 F900
G1 X0.000 Y15.000 Z15.450 E134.20 F900
G1 X-10.607 Y10.607 Z15.575 E135.30 F900
G1 X-15.000 Y0.000 Z15.700 E136.40 F900
G1 X-10.607 Y-10.607 Z15.825 E137.50 F900
G1 X0.000 Y-15.000 Z15.950 E138.60 F900
G1 X10.607 Y-10.607 Z16.075 E139.70 F900
G1 X15.000 Y-0.000 Z16.200 E140.80 F900
G1 X10.607 Y10.607 Z16.325 E141.90 F900
G1 X0.000 Y15.000 Z16.450 E143.00 F900
G1 X-10.607 Y10.607 Z16.575 E144.10 F900
G1 X-15.000 Y0.000 Z16.700 E145.20 F900
G1 X-10.607 Y-10.607 Z16.825 E146.30 F900
G1 X-0.000 Y-15.000 Z16.950 E147.40 F900
G1 X10.607 Y-10.607 Z17.075 E148.50 F900
G1 X15.000 Y0.000 Z17.200 E149.60 F900
G1 X10.607 Y10.607 Z17.325 E150.70 F900
G1 X0.000 Y15.000 Z17.450 E151.80 F900
G1 X-10.607 Y10.607 Z17.575 E152.90 F900
G1 X-15.000 Y0.000 Z17.700 E154.00 F900
G1 X-10.607 Y-10.607 Z17.825 E155.10 F900
G1 X0.000 Y-15.000 Z17.950 E156.20 F900
G1 X10.607 Y-10.607 Z18.075 E157.30 F900
G1 X15.000 Y-0.000 Z18.200 E158.40 F900
G1 X10.607 Y10.607 Z18.325 E159.50 F900
G1 X0.000 Y15.000 Z18.450 E160.60 F900
G1 X-10.607 Y10.607 Z18.575 E161.70 F900
G1 X-15.000 Y0.000 Z18.700 E162.80 F900
G1 X-10.607 Y-10.607 Z18.825 E163.90 F900
G1 X-0.000 Y-15.000 Z18.950 E165.00 F900
G1 X10.607 Y-10.607 Z19.075 E166.10 F900
G1 X15.000 Y-0.000 Z19.200 E167.20 F900
G1 X10.607 Y10.607 Z19.325 E168.30 F900
G1 X0.000 Y15.000 Z19.450 E169.40 F900
G1 X-10.607 Y10.607 Z19.575 E170.50 F900
G1 X-15.000 Y0.000 Z19.700 E171.60 F900
G1 X-10.607 Y-10.607 Z19.825 E172.70 F900
G1 X0.000 Y-15.000 Z19.950 E173.80 F900
G1 X10.607 Y-10.607 Z20.075 E174.90 F900
G1 X15.000 Y-0.000 Z20.200 E176.00 F900
G28
