; Ornek: yay (G2/G3) destegi — koseleri yuvarlatilmis kutu + daire
; Ayni dosyada hem I/J hem R formu ve G3 helis kullanilir.
G21
G90
M83
G28
G1 Z0.20 F600
G1 X15 Y10 F1500
G1 X45 Y10 E1.200 F900
G3 X50 Y15 I0 J5 E1.600
G1 X50 Y35 E2.500
G3 X45 Y40 I-5 J0 E2.900
G1 X15 Y40 E4.100
G3 X10 Y35 I0 J-5 E4.500
G1 X10 Y15 E5.400
G3 X15 Y10 I5 J0 E5.800
G1 Z0.40 F600
G1 X15 Y10 F1500
G1 X45 Y10 E7.000 F900
G3 X50 Y15 I0 J5 E7.400
G1 X50 Y35 E8.300
G3 X45 Y40 I-5 J0 E8.700
G1 X15 Y40 E9.900
G3 X10 Y35 I0 J-5 E10.300
G1 X10 Y15 E11.200
G3 X15 Y10 I5 J0 E11.600
G1 Z0.60 F600
G1 X15 Y10 F1500
G1 X45 Y10 E12.800 F900
G3 X50 Y15 I0 J5 E13.200
G1 X50 Y35 E14.100
G3 X45 Y40 I-5 J0 E14.500
G1 X15 Y40 E15.700
G3 X10 Y35 I0 J-5 E16.100
G1 X10 Y15 E17.000
G3 X15 Y10 I5 J0 E17.400
G1 Z0.80 F600
G1 X15 Y10 F1500
G1 X45 Y10 E18.600 F900
G3 X50 Y15 I0 J5 E19.000
G1 X50 Y35 E19.900
G3 X45 Y40 I-5 J0 E20.300
G1 X15 Y40 E21.500
G3 X10 Y35 I0 J-5 E21.900
G1 X10 Y15 E22.800
G3 X15 Y10 I5 J0 E23.200
G1 Z1.00 F600
G1 X20 Y25 F1500
G2 X40 Y25 R10 E24.800 F900
G2 X20 Y25 R10 E26.400
G1 X30 Y15 F1500
G3 X30 Y15 Z1.30 I0 J10 E28.400 F900
G3 X30 Y15 Z1.60 I0 J10 E30.400 F900
G3 X30 Y15 Z1.90 I0 J10 E32.400 F900
G3 X30 Y15 Z2.20 I0 J10 E34.400 F900
G3 X30 Y15 Z2.50 I0 J10 E36.400 F900
G3 X30 Y15 Z2.80 I0 J10 E38.400 F900
G1 Z10 F600
G28
